[{"OBJECT_NAME":"TIANTONG-1 3","OBJECT_ID":"2021-003A","EPOCH":"2026-04-27T00:13:18.444000","MEAN_MOTION":1.00269596,"ECCENTRICITY":0.00031823,"INCLINATION":1.8004,"RA_OF_ASC_NODE":336.2606,"ARG_OF_PERICENTER":62.016,"MEAN_ANOMALY":261.5444,"EPHEMERIS_TYPE":0,"CLASSIFICATION_TYPE":"U","NORAD_CAT_ID":47321,"ELEMENT_SET_NO":999,"REV_AT_EPOCH":1944,"BSTAR":0,"MEAN_MOTION_DOT":-1.68e-6,"MEAN_MOTION_DDOT":0},{"OBJECT_NAME":"TJS-6","OBJECT_ID":"2021-010A","EPOCH":"2026-04-27T11:08:38.657184","MEAN_MOTION":1.00274344,"ECCENTRICITY":0.0003067,"INCLINATION":0.4708,"RA_OF_ASC_NODE":88.3915,"ARG_OF_PERICENTER":312.841,"MEAN_ANOMALY":159.9223,"EPHEMERIS_TYPE":0,"CLASSIFICATION_TYPE":"U","NORAD_CAT_ID":47613,"ELEMENT_SET_NO":999,"REV_AT_EPOCH":1930,"BSTAR":0,"MEAN_MOTION_DOT":3.5e-7,"MEAN_MOTION_DDOT":0},{"OBJECT_NAME":"SBIRS GEO-5 (USA 315)","OBJECT_ID":"2021-042A","EPOCH":"2026-04-27T01:13:38.591040","MEAN_MOTION":1.00271667,"ECCENTRICITY":0.0001425,"INCLINATION":5.169,"RA_OF_ASC_NODE":328.7497,"ARG_OF_PERICENTER":64.6376,"MEAN_ANOMALY":293.8565,"EPHEMERIS_TYPE":0,"CLASSIFICATION_TYPE":"U","NORAD_CAT_ID":48618,"ELEMENT_SET_NO":999,"REV_AT_EPOCH":1825,"BSTAR":0,"MEAN_MOTION_DOT":-2.88e-6,"MEAN_MOTION_DDOT":0},{"OBJECT_NAME":"FENGYUN 4B","OBJECT_ID":"2021-047A","EPOCH":"2026-04-27T11:52:24.584736","MEAN_MOTION":1.00266288,"ECCENTRICITY":0.0005494,"INCLINATION":0.0189,"RA_OF_ASC_NODE":11.9302,"ARG_OF_PERICENTER":1.9062,"MEAN_ANOMALY":124.4139,"EPHEMERIS_TYPE":0,"CLASSIFICATION_TYPE":"U","NORAD_CAT_ID":48808,"ELEMENT_SET_NO":999,"REV_AT_EPOCH":1807,"BSTAR":0,"MEAN_MOTION_DOT":0,"MEAN_MOTION_DDOT":0},{"OBJECT_NAME":"SXM-8","OBJECT_ID":"2021-049A","EPOCH":"2026-04-27T05:42:00.292032","MEAN_MOTION":1.00272936,"ECCENTRICITY":0.0004621,"INCLINATION":0.0439,"RA_OF_ASC_NODE":50.7942,"ARG_OF_PERICENTER":347.1099,"MEAN_ANOMALY":177.6761,"EPHEMERIS_TYPE":0,"CLASSIFICATION_TYPE":"U","NORAD_CAT_ID":48838,"ELEMENT_SET_NO":999,"REV_AT_EPOCH":1807,"BSTAR":0,"MEAN_MOTION_DOT":-2.15e-6,"MEAN_MOTION_DDOT":0},{"OBJECT_NAME":"TIANLIAN 1-05","OBJECT_ID":"2021-063A","EPOCH":"2026-04-27T06:45:33.322752","MEAN_MOTION":1.00271262,"ECCENTRICITY":0.0002591,"INCLINATION":1.4643,"RA_OF_ASC_NODE":81.0669,"ARG_OF_PERICENTER":264.3256,"MEAN_ANOMALY":348.0705,"EPHEMERIS_TYPE":0,"CLASSIFICATION_TYPE":"U","NORAD_CAT_ID":49011,"ELEMENT_SET_NO":999,"REV_AT_EPOCH":1756,"BSTAR":0,"MEAN_MOTION_DOT":9.9e-7,"MEAN_MOTION_DDOT":0},{"OBJECT_NAME":"STAR ONE D2","OBJECT_ID":"2021-069A","EPOCH":"2026-04-26T23:44:38.893056","MEAN_MOTION":1.00271769,"ECCENTRICITY":0.00011794,"INCLINATION":0.0218,"RA_OF_ASC_NODE":140.2846,"ARG_OF_PERICENTER":276.311,"MEAN_ANOMALY":84.5713,"EPHEMERIS_TYPE":0,"CLASSIFICATION_TYPE":"U","NORAD_CAT_ID":49055,"ELEMENT_SET_NO":999,"REV_AT_EPOCH":1743,"BSTAR":0,"MEAN_MOTION_DOT":-2.76e-6,"MEAN_MOTION_DDOT":0},{"OBJECT_NAME":"EUTELSAT QUANTUM","OBJECT_ID":"2021-069B","EPOCH":"2026-04-27T04:48:38.757312","MEAN_MOTION":1.00272725,"ECCENTRICITY":0.00025275,"INCLINATION":0.007,"RA_OF_ASC_NODE":50.2325,"ARG_OF_PERICENTER":348.5903,"MEAN_ANOMALY":296.2278,"EPHEMERIS_TYPE":0,"CLASSIFICATION_TYPE":"U","NORAD_CAT_ID":49056,"ELEMENT_SET_NO":999,"REV_AT_EPOCH":1741,"BSTAR":0,"MEAN_MOTION_DOT":0,"MEAN_MOTION_DDOT":0},{"OBJECT_NAME":"ZHONGXING-2E","OBJECT_ID":"2021-071A","EPOCH":"2026-04-27T13:08:39.405120","MEAN_MOTION":1.0026946,"ECCENTRICITY":0.0001888,"INCLINATION":0.0328,"RA_OF_ASC_NODE":351.6381,"ARG_OF_PERICENTER":132.7236,"MEAN_ANOMALY":26.3727,"EPHEMERIS_TYPE":0,"CLASSIFICATION_TYPE":"U","NORAD_CAT_ID":49062,"ELEMENT_SET_NO":999,"REV_AT_EPOCH":1753,"BSTAR":0,"MEAN_MOTION_DOT":-3.0e-6,"MEAN_MOTION_DDOT":0},{"OBJECT_NAME":"TJS-7","OBJECT_ID":"2021-077A","EPOCH":"2026-04-27T11:49:28.788384","MEAN_MOTION":1.00269755,"ECCENTRICITY":0.0002069,"INCLINATION":0.3791,"RA_OF_ASC_NODE":86.5083,"ARG_OF_PERICENTER":301.9343,"MEAN_ANOMALY":264.8739,"EPHEMERIS_TYPE":0,"CLASSIFICATION_TYPE":"U","NORAD_CAT_ID":49115,"ELEMENT_SET_NO":999,"REV_AT_EPOCH":904,"BSTAR":0,"MEAN_MOTION_DOT":-1.32e-6,"MEAN_MOTION_DDOT":0},{"OBJECT_NAME":"CHINASAT 9B","OBJECT_ID":"2021-080A","EPOCH":"2026-04-27T11:41:13.844256","MEAN_MOTION":1.00273063,"ECCENTRICITY":0.0001523,"INCLINATION":0.013,"RA_OF_ASC_NODE":252.1238,"ARG_OF_PERICENTER":143.6771,"MEAN_ANOMALY":96.3906,"EPHEMERIS_TYPE":0,"CLASSIFICATION_TYPE":"U","NORAD_CAT_ID":49125,"ELEMENT_SET_NO":999,"REV_AT_EPOCH":1714,"BSTAR":0,"MEAN_MOTION_DOT":-3.22e-6,"MEAN_MOTION_DDOT":0},{"OBJECT_NAME":"SHIJIAN-21 (SJ-21)","OBJECT_ID":"2021-094A","EPOCH":"2026-04-27T07:57:43.206048","MEAN_MOTION":1.00278326,"ECCENTRICITY":0.00481336,"INCLINATION":4.9952,"RA_OF_ASC_NODE":61.4669,"ARG_OF_PERICENTER":168.9538,"MEAN_ANOMALY":232.1175,"EPHEMERIS_TYPE":0,"CLASSIFICATION_TYPE":"U","NORAD_CAT_ID":49330,"ELEMENT_SET_NO":999,"REV_AT_EPOCH":485,"BSTAR":0,"MEAN_MOTION_DOT":-3.54e-6,"MEAN_MOTION_DDOT":0},{"OBJECT_NAME":"SES-17","OBJECT_ID":"2021-095A","EPOCH":"2026-04-27T11:37:14.300256","MEAN_MOTION":1.00270027,"ECCENTRICITY":0.0001007,"INCLINATION":0.0434,"RA_OF_ASC_NODE":47.5695,"ARG_OF_PERICENTER":344.4325,"MEAN_ANOMALY":290.6788,"EPHEMERIS_TYPE":0,"CLASSIFICATION_TYPE":"U","NORAD_CAT_ID":49332,"ELEMENT_SET_NO":999,"REV_AT_EPOCH":1734,"BSTAR":0,"MEAN_MOTION_DOT":-2.81e-6,"MEAN_MOTION_DDOT":0},{"OBJECT_NAME":"SYRACUSE 4A","OBJECT_ID":"2021-095B","EPOCH":"2026-04-27T04:48:38.757312","MEAN_MOTION":1.00272295,"ECCENTRICITY":0.00011943,"INCLINATION":0.0185,"RA_OF_ASC_NODE":278.4236,"ARG_OF_PERICENTER":125.9982,"MEAN_ANOMALY":288.4322,"EPHEMERIS_TYPE":0,"CLASSIFICATION_TYPE":"U","NORAD_CAT_ID":49333,"ELEMENT_SET_NO":999,"REV_AT_EPOCH":1743,"BSTAR":0,"MEAN_MOTION_DOT":1.25e-6,"MEAN_MOTION_DDOT":0},{"OBJECT_NAME":"QZS-1R (MICHIBIKI-1R)","OBJECT_ID":"2021-096A","EPOCH":"2026-04-27T05:18:38.509920","MEAN_MOTION":1.00272987,"ECCENTRICITY":0.0751436,"INCLINATION":37.3604,"RA_OF_ASC_NODE":80.3327,"ARG_OF_PERICENTER":270.8549,"MEAN_ANOMALY":79.3818,"EPHEMERIS_TYPE":0,"CLASSIFICATION_TYPE":"U","NORAD_CAT_ID":49336,"ELEMENT_SET_NO":999,"REV_AT_EPOCH":1649,"BSTAR":0,"MEAN_MOTION_DOT":-2.37e-6,"MEAN_MOTION_DDOT":0},{"OBJECT_NAME":"ZHONGXING-1D","OBJECT_ID":"2021-114A","EPOCH":"2026-04-27T12:45:59.114016","MEAN_MOTION":1.00273053,"ECCENTRICITY":0.0001971,"INCLINATION":0.0507,"RA_OF_ASC_NODE":60.5403,"ARG_OF_PERICENTER":165.9327,"MEAN_ANOMALY":310.72,"EPHEMERIS_TYPE":0,"CLASSIFICATION_TYPE":"U","NORAD_CAT_ID":49505,"ELEMENT_SET_NO":999,"REV_AT_EPOCH":1631,"BSTAR":0,"MEAN_MOTION_DOT":-3.45e-6,"MEAN_MOTION_DDOT":0},{"OBJECT_NAME":"STPSAT-6","OBJECT_ID":"2021-118A","EPOCH":"2026-04-27T11:03:48.175200","MEAN_MOTION":1.0027241,"ECCENTRICITY":0.0002071,"INCLINATION":0.1909,"RA_OF_ASC_NODE":84.906,"ARG_OF_PERICENTER":251.8744,"MEAN_ANOMALY":292.764,"EPHEMERIS_TYPE":0,"CLASSIFICATION_TYPE":"U","NORAD_CAT_ID":49817,"ELEMENT_SET_NO":999,"REV_AT_EPOCH":1606,"BSTAR":0,"MEAN_MOTION_DOT":-5.4e-7,"MEAN_MOTION_DDOT":0}]
