TIANTONG-1 3            
1 47321U 21003A   26117.00924125 -.00000168  00000+0  00000+0 0  9997
2 47321   1.8004 336.2606 0003182  62.0160 261.5444  1.00269596 19449
TJS-6                   
1 47613U 21010A   26117.46433631  .00000035  00000+0  00000+0 0  9998
2 47613   0.4708  88.3915 0003067 312.8410 159.9223  1.00274344 19300
SBIRS GEO-5 (USA 315)   
1 48618U 21042A   26117.05114110 -.00000288  00000+0  00000+0 0  9993
2 48618   5.1690 328.7497 0001425  64.6376 293.8565  1.00271667 18258
FENGYUN 4B              
1 48808U 21047A   26117.49472899  .00000000  00000+0  00000+0 0  9999
2 48808   0.0189  11.9302 0005494   1.9062 124.4139  1.00266288 18077
SXM-8                   
1 48838U 21049A   26117.23750338 -.00000215  00000+0  00000+0 0  9992
2 48838   0.0439  50.7942 0004621 347.1099 177.6761  1.00272936 18073
TIANLIAN 1-05           
1 49011U 21063A   26117.28163568  .00000099  00000+0  00000+0 0  9999
2 49011   1.4643  81.0669 0002591 264.3256 348.0705  1.00271262 17567
STAR ONE D2             
1 49055U 21069A   26116.98933904 -.00000276  00000+0  00000+0 0  9996
2 49055   0.0218 140.2846 0001179 276.3110  84.5713  1.00271769 17435
EUTELSAT QUANTUM        
1 49056U 21069B   26117.20044858  .00000000  00000+0  00000+0 0  9998
2 49056   0.0070  50.2325 0002527 348.5903 296.2278  1.00272725 17413
ZHONGXING-2E            
1 49062U 21071A   26117.54767830 -.00000300  00000+0  00000+0 0  9991
2 49062   0.0328 351.6381 0001888 132.7236  26.3727  1.00269460 17533
TJS-7                   
1 49115U 21077A   26117.49269431 -.00000132  00000+0  00000+0 0  9997
2 49115   0.3791  86.5083 0002069 301.9343 264.8739  1.00269755  9049
CHINASAT 9B             
1 49125U 21080A   26117.48696579 -.00000322  00000+0  00000+0 0  9999
2 49125   0.0130 252.1238 0001523 143.6771  96.3906  1.00273063 17148
SHIJIAN-21 (SJ-21)      
1 49330U 21094A   26117.33175007 -.00000354  00000+0  00000+0 0  9999
2 49330   4.9952  61.4669 0048133 168.9538 232.1175  1.00278326  4858
SES-17                  
1 49332U 21095A   26117.48419329 -.00000281  00000+0  00000+0 0  9995
2 49332   0.0434  47.5695 0001007 344.4325 290.6788  1.00270027 17347
SYRACUSE 4A             
1 49333U 21095B   26117.20044858  .00000125  00000+0  00000+0 0  9993
2 49333   0.0185 278.4236 0001194 125.9982 288.4322  1.00272295 17433
QZS-1R (MICHIBIKI-1R)   
1 49336U 21096A   26117.22127905 -.00000237  00000+0  00000+0 0  9999
2 49336  37.3604  80.3327 0751436 270.8549  79.3818  1.00272987 16496
ZHONGXING-1D            
1 49505U 21114A   26117.53193419 -.00000345  00000+0  00000+0 0  9995
2 49505   0.0507  60.5403 0001971 165.9327 310.7200  1.00273053 16311
STPSAT-6                
1 49817U 21118A   26117.46097425 -.00000054  00000+0  00000+0 0  9994
2 49817   0.1909  84.9060 0002071 251.8744 292.7640  1.00272410 16068
